NORAD_CAT_ID,OBJECT_NAME,OBJECT_TYPE,EPOCH,MEAN_MOTION,ECCENTRICITY,INCLINATION,RA_OF_ASC_NODE,ARG_OF_PERICENTER,MEAN_ANOMALY,BSTAR,MEAN_MOTION_DOT,MEAN_MOTION_DDOT,TLE_LINE0,TLE_LINE1,TLE_LINE2,SEMIMAJOR_AXIS,PERIOD,APOGEE,PERIGEE,DECAYED
54172.0,STARLINK-5117,PAYLOAD,2024-07-30 10:37:22,15.08848288,0.0001304,53.2175,120.3476,82.9901,277.1239,0.00021435,3.126e-05,0.0,0 STARLINK-5117,1 54172U 22141R   24212.44261970  .00003126  00000-0  21435-3 0  9993,2 54172  53.2175 120.3476 0001304  82.9901 277.1239 15.08848288 97205,6917.855,95.437,540.622,538.818,0.0
54172.0,STARLINK-5117,PAYLOAD,2024-07-30 21:45:05,15.08833305,0.0001395,53.2183,118.2703,96.6014,263.5137,3.9393e-05,3.39e-06,0.0,0 STARLINK-5117,1 54172U 22141R   24212.90631665  .00000339  00000-0  39393-4 0  9992,2 54172  53.2183 118.2703 0001395  96.6014 263.5137 15.08833305 97277,6917.901,95.438,540.731,538.801,0.0
54172.0,STARLINK-5117,PAYLOAD,2024-07-30 23:20:28,15.08834819,0.0001418,53.2186,117.9734,97.6664,262.4489,5.4471e-05,5.79e-06,0.0,0 STARLINK-5117,1 54172U 22141R   24212.97255574  .00000579  00000-0  54471-4 0  9990,2 54172  53.2186 117.9734 0001418  97.6664 262.4489 15.08834819 97288,6917.896,95.438,540.742,538.78,0.0
54172.0,STARLINK-5117,PAYLOAD,2024-07-31 10:28:09,15.08852003,0.0001231,53.2171,115.892,84.1501,275.9631,0.0001433,1.994e-05,0.0,0 STARLINK-5117,1 54172U 22141R   24213.43622232  .00001994  00000-0  14330-3 0  9992,2 54172  53.2171 115.8920 0001231  84.1501 275.9631 15.08852003 97351,6917.844,95.437,540.56,538.857,0.0
54172.0,STARLINK-5117,PAYLOAD,2024-07-31 21:35:53,15.08830326,0.0001408,53.218,113.8089,89.7678,270.3475,-5.9646e-05,-1.237e-05,0.0,0 STARLINK-5117,1 54172U 22141R   24213.89992330 -.00001237  00000-0 -59646-4 0  9993,2 54172  53.2180 113.8089 0001408  89.7678 270.3475 15.08830326 97424,6917.91,95.438,540.749,538.801,0.0
54172.0,STARLINK-5117,PAYLOAD,2024-07-31 23:11:16,15.0883119,0.0001442,53.218,113.5115,89.6358,270.4799,-4.9801e-05,-1.08e-05,0.0,0 STARLINK-5117,1 54172U 22141R   24213.96616294 -.00001080  00000-0 -49801-4 0  9991,2 54172  53.2180 113.5115 0001442  89.6358 270.4799 15.08831190 97434,6917.907,95.438,540.77,538.775,0.0
54172.0,STARLINK-5117,PAYLOAD,2024-08-01 10:18:57,15.0885118,0.0001515,53.2192,111.4295,86.8707,273.2459,8.8311e-05,1.118e-05,0.0,0 STARLINK-5117,1 54172U 22141R   24214.42982739  .00001118  00000-0  88311-4 0  9992,2 54172  53.2192 111.4295 0001515  86.8707 273.2459 15.08851180 97504,6917.846,95.437,540.759,538.663,0.0
54172.0,STARLINK-5117,PAYLOAD,2024-08-01 21:26:39,15.08842142,0.0001638,53.2177,109.3444,75.2126,284.9047,0.0002204,3.222e-05,0.0,0 STARLINK-5117,1 54172U 22141R   24214.89351338  .00003222  00000-0  22040-3 0  9992,2 54172  53.2177 109.3444 0001638  75.2126 284.9047 15.08842142 97579,6917.874,95.437,540.872,538.606,0.0
54172.0,STARLINK-5117,PAYLOAD,2024-08-01 23:02:02,15.0884673,0.0001456,53.2166,109.0484,83.2192,276.8965,0.00020188,2.927e-05,0.0,0 STARLINK-5117,1 54172U 22141R   24214.95974955  .00002927  00000-0  20188-3 0  9997,2 54172  53.2166 109.0484 0001456  83.2192 276.8965 15.08846730 97585,6917.86,95.437,540.732,538.718,0.0
54172.0,STARLINK-5117,PAYLOAD,2024-08-02 10:09:43,15.08862232,0.0001483,53.2166,106.9705,79.5055,280.6105,0.00030788,4.618e-05,0.0,0 STARLINK-5117,1 54172U 22141R   24215.42341948  .00004618  00000-0  30788-3 0  9996,2 54172  53.2166 106.9705 0001483  79.5055 280.6105 15.08862232 97655,6917.812,95.436,540.703,538.652,0.0
54172.0,STARLINK-5117,PAYLOAD,2024-08-02 21:17:26,15.08828144,0.0001374,53.2154,104.8878,91.5,268.615,-0.00011482,-2.114e-05,0.0,0 STARLINK-5117,1 54172U 22141R   24215.88711486 -.00002114  00000-0 -11482-3 0  9995,2 54172  53.2154 104.8878 0001374  91.5000 268.6150 15.08828144 97721,6917.917,95.438,540.732,538.831,0.0
54172.0,STARLINK-5117,PAYLOAD,2024-08-02 22:52:49,15.08827521,0.0001145,53.2147,104.59,94.5352,265.5771,-0.00013608,-2.452e-05,0.0,0 STARLINK-5117,1 54172U 22141R   24215.95335471 -.00002452  00000-0 -13608-3 0  9996,2 54172  53.2147 104.5900 0001145  94.5352 265.5771 15.08827521 97739,6917.919,95.438,540.576,538.991,0.0
54172.0,STARLINK-5117,PAYLOAD,2024-08-03 10:00:31,15.0884863,0.0001278,53.2147,102.5062,103.0707,257.0427,0.00020031,2.902e-05,0.0,0 STARLINK-5117,1 54172U 22141R   24216.41702668  .00002902  00000-0  20031-3 0  9990,2 54172  53.2147 102.5062 0001278 103.0707 257.0427 15.08848630 97809,6917.854,95.437,540.603,538.835,0.0
54172.0,STARLINK-5117,PAYLOAD,2024-08-03 21:08:13,15.08841484,0.000127,53.2153,100.4259,132.5122,227.5978,0.0001872,2.693e-05,0.0,0 STARLINK-5117,1 54172U 22141R   24216.88071046  .00002693  00000-0  18720-3 0  9999,2 54172  53.2153 100.4259 0001270 132.5122 227.5978 15.08841484 97871,6917.876,95.437,540.619,538.862,0.0
54172.0,STARLINK-5117,PAYLOAD,2024-08-03 22:43:36,15.08835806,0.0001482,53.2156,100.1264,106.5817,253.5338,5.6528e-05,6.12e-06,0.0,0 STARLINK-5117,1 54172U 22141R   24216.94695355  .00000612  00000-0  56528-4 0  9999,2 54172  53.2156 100.1264 0001482 106.5817 253.5338 15.08835806 97885,6917.893,95.438,540.783,538.733,0.0
54172.0,STARLINK-5117,PAYLOAD,2024-08-04 09:51:18,15.08849359,0.0001485,53.2171,98.0437,109.5826,250.5326,0.00030854,4.627e-05,0.0,0 STARLINK-5117,1 54172U 22141R   24217.41062919  .00004627  00000-0  30854-3 0  9999,2 54172  53.2171  98.0437 0001485 109.5826 250.5326 15.08849359 97955,6917.852,95.437,540.744,538.689,0.0
54172.0,STARLINK-5117,PAYLOAD,2024-08-04 20:59:00,15.0884409,0.0001646,53.218,95.9623,114.8627,245.2536,0.00040718,6.199e-05,0.0,0 STARLINK-5117,1 54172U 22141R   24217.87431432  .00006199  00000-0  40718-3 0  9995,2 54172  53.2180  95.9623 0001646 114.8627 245.2536 15.08844090 98025,6917.868,95.437,540.872,538.594,0.0
54172.0,STARLINK-5117,PAYLOAD,2024-08-04 22:34:23,15.08841896,0.0001461,53.2169,95.6666,100.8509,259.2647,0.00032764,4.931e-05,0.0,0 STARLINK-5117,1 54172U 22141R   24217.94055505  .00004931  00000-0  32764-3 0  9990,2 54172  53.2169  95.6666 0001461 100.8509 259.2647 15.08841896 98035,6917.875,95.437,540.75,538.729,0.0
54172.0,STARLINK-5117,PAYLOAD,2024-08-05 22:25:11,15.08824462,0.0001347,53.2169,91.2054,106.056,254.0581,-0.00015073,-2.685e-05,0.0,0 STARLINK-5117,1 54172U 22141R   24218.93416326 -.00002685  00000-0 -15073-3 0  9992,2 54172  53.2169  91.2054 0001347 106.0560 254.0581 15.08824462 98182,6917.928,95.439,540.725,538.861,0.0
54172.0,STARLINK-5117,PAYLOAD,2024-08-06 07:57:30,15.08823548,0.0001429,53.217,89.4219,106.5602,253.5547,5.9973e-05,6.66e-06,0.0,0 STARLINK-5117,1 54172U 22141R   24219.33160820  .00000666  00000-0  59973-4 0  9995,2 54172  53.2170  89.4219 0001429 106.5602 253.5547 15.08823548 98246,6917.931,95.439,540.784,538.807,0.0
54172.0,STARLINK-5117,PAYLOAD,2024-08-06 19:05:12,15.08842099,0.0001262,53.2163,87.3407,106.8696,253.2434,0.00044617,6.82e-05,0.0,0 STARLINK-5117,1 54172U 22141R   24219.79528582  .00006820  00000-0  44617-3 0  9994,2 54172  53.2163  87.3407 0001262 106.8696 253.2434 15.08842099 98317,6917.874,95.437,540.612,538.866,0.0
54172.0,STARLINK-5117,PAYLOAD,2024-08-07 20:31:22,15.08864484,0.000122,53.2157,82.5837,112.4322,247.6799,0.00063245,9.799e-05,0.0,0 STARLINK-5117,1 54172U 22141R   24220.85511769  .00009799  00000-0  63245-3 0  9998,2 54172  53.2157  82.5837 0001220 112.4322 247.6799 15.08864484 98477,6917.806,95.436,540.515,538.827,0.0
54172.0,STARLINK-5117,PAYLOAD,2024-08-08 21:57:32,15.08848399,0.0001117,53.2158,77.8255,85.2691,274.8428,0.00033625,5.069e-05,0.0,0 STARLINK-5117,1 54172U 22141R   24221.91495643  .00005069  00000-0  33625-3 0  9993,2 54172  53.2158  77.8255 0001117  85.2691 274.8428 15.08848399 98636,6917.855,95.437,540.492,538.947,0.0
54172.0,STARLINK-5117,PAYLOAD,2024-08-09 13:51:24,15.08832418,0.0001354,53.2162,74.8523,90.9121,269.2026,-8.9012e-05,-1.704e-05,0.0,0 STARLINK-5117,1 54172U 22141R   24222.57736354 -.00001704  00000-0 -89012-4 0  9999,2 54172  53.2162  74.8523 0001354  90.9121 269.2026 15.08832418 98738,6917.904,95.438,540.705,538.832,0.0
54172.0,STARLINK-5117,PAYLOAD,2024-08-09 20:12:56,15.0883479,0.0001219,53.2163,73.6647,92.1361,267.9771,-4.4263e-05,-9.92e-06,0.0,0 STARLINK-5117,1 54172U 22141R   24222.84232329 -.00000992  00000-0 -44263-4 0  9999,2 54172  53.2163  73.6647 0001219  92.1361 267.9771 15.08834790 98774,6917.896,95.438,540.605,538.918,0.0
54172.0,STARLINK-5117,PAYLOAD,2024-08-10 13:42:10,15.08844799,0.0001261,53.2169,70.3929,88.9239,271.1898,0.00018851,2.714e-05,0.0,0 STARLINK-5117,1 54172U 22141R   24223.57095961  .00002714  00000-0  18851-3 0  9994,2 54172  53.2169  70.3929 0001261  88.9239 271.1898 15.08844799 98880,6917.866,95.437,540.603,538.858,0.0
54172.0,STARLINK-5117,PAYLOAD,2024-08-10 20:03:43,15.08842909,0.0001282,53.2168,69.2025,93.2734,266.8404,0.00024706,3.647e-05,0.0,0 STARLINK-5117,1 54172U 22141R   24223.83592174  .00003647  00000-0  24706-3 0  9993,2 54172  53.2168  69.2025 0001282  93.2734 266.8404 15.08842909 98925,6917.871,95.437,540.623,538.85,0.0
54172.0,STARLINK-5117,PAYLOAD,2024-08-11 19:54:30,15.08839556,0.0001331,53.2177,64.7435,91.3917,268.7227,0.00013121,1.801e-05,0.0,0 STARLINK-5117,1 54172U 22141R   24224.82952285  .00001801  00000-0  13121-3 0  9995,2 54172  53.2177  64.7435 0001331  91.3917 268.7227 15.08839556 99072,6917.882,95.438,540.668,538.826,0.0
54172.0,STARLINK-5117,PAYLOAD,2024-08-12 19:45:17,15.0886252,0.0001654,53.2182,60.2831,87.6614,272.4567,0.0008549,0.00013352,0.0,0 STARLINK-5117,1 54172U 22141R   24225.82311623  .00013352  00000-0  85490-3 0  9993,2 54172  53.2182  60.2831 0001654  87.6614 272.4567 15.08862520 99222,6917.812,95.436,540.821,538.532,0.0
54172.0,STARLINK-5117,PAYLOAD,2024-08-12 21:20:40,15.08868439,0.000133,53.2169,59.986,81.3379,278.7763,0.0011671,0.0001835,0.0,0 STARLINK-5117,1 54172U 22141R   24225.88935600  .00018350  00000-0  11671-2 0  9998,2 54172  53.2169  59.9860 0001330  81.3379 278.7763 15.08868439 99237,6917.793,95.436,540.579,538.738,0.0
